{"fetched_at":"2026-07-13T07:48:20.256Z","source":"https://celestrak.org/NORAD/elements/gp.php?NAME=HAWK&FORMAT=JSON","constellation":"hawkeye-360","records":[{"OBJECT_NAME":"HAWK-A","OBJECT_ID":"2018-099H","EPOCH":"2026-07-12T16:18:12.898944","CLASSIFICATION_TYPE":"U","MEAN_MOTION":15.2494436,"ECCENTRICITY":0.0034452,"INCLINATION":97.3903,"RA_OF_ASC_NODE":245.5853,"ARG_OF_PERICENTER":192.819,"MEAN_ANOMALY":167.2175,"EPHEMERIS_TYPE":0,"NORAD_CAT_ID":43765,"ELEMENT_SET_NO":999,"REV_AT_EPOCH":41698,"BSTAR":0.00016642,"MEAN_MOTION_DOT":0.0000414,"MEAN_MOTION_DDOT":0},{"OBJECT_NAME":"HAWK-B","OBJECT_ID":"2018-099AN","EPOCH":"2026-07-12T15:58:39.904032","CLASSIFICATION_TYPE":"U","MEAN_MOTION":15.23097282,"ECCENTRICITY":0.0031136,"INCLINATION":97.3952,"RA_OF_ASC_NODE":244.9331,"ARG_OF_PERICENTER":211.1132,"MEAN_ANOMALY":148.8262,"EPHEMERIS_TYPE":0,"NORAD_CAT_ID":43794,"ELEMENT_SET_NO":999,"REV_AT_EPOCH":41691,"BSTAR":0.00014942,"MEAN_MOTION_DOT":0.00003497,"MEAN_MOTION_DDOT":0},{"OBJECT_NAME":"HAWK-C","OBJECT_ID":"2018-099AT","EPOCH":"2026-07-12T17:29:15.715104","CLASSIFICATION_TYPE":"U","MEAN_MOTION":15.28466075,"ECCENTRICITY":0.0040041,"INCLINATION":97.3881,"RA_OF_ASC_NODE":246.673,"ARG_OF_PERICENTER":192.5496,"MEAN_ANOMALY":167.475,"EPHEMERIS_TYPE":0,"NORAD_CAT_ID":43799,"ELEMENT_SET_NO":999,"REV_AT_EPOCH":41781,"BSTAR":0.00017915,"MEAN_MOTION_DOT":0.00005004,"MEAN_MOTION_DDOT":0},{"OBJECT_NAME":"HAWK-2C","OBJECT_ID":"2021-006CT","EPOCH":"2026-07-12T17:01:31.706400","CLASSIFICATION_TYPE":"U","MEAN_MOTION":15.34969433,"ECCENTRICITY":0.0008623,"INCLINATION":97.2269,"RA_OF_ASC_NODE":237.5126,"ARG_OF_PERICENTER":107.8929,"MEAN_ANOMALY":252.3255,"EPHEMERIS_TYPE":0,"NORAD_CAT_ID":47502,"ELEMENT_SET_NO":999,"REV_AT_EPOCH":30341,"BSTAR":0.00012213,"MEAN_MOTION_DOT":0.00004068,"MEAN_MOTION_DDOT":0},{"OBJECT_NAME":"HAWK-2A","OBJECT_ID":"2021-006CW","EPOCH":"2026-07-12T17:04:45.975072","CLASSIFICATION_TYPE":"U","MEAN_MOTION":15.34984293,"ECCENTRICITY":0.0008132,"INCLINATION":97.2313,"RA_OF_ASC_NODE":238.2076,"ARG_OF_PERICENTER":111.0893,"MEAN_ANOMALY":249.1221,"EPHEMERIS_TYPE":0,"NORAD_CAT_ID":47505,"ELEMENT_SET_NO":999,"REV_AT_EPOCH":30341,"BSTAR":0.00012197,"MEAN_MOTION_DOT":0.00004064,"MEAN_MOTION_DDOT":0},{"OBJECT_NAME":"HAWK-2B","OBJECT_ID":"2021-006CZ","EPOCH":"2026-07-12T15:21:52.570656","CLASSIFICATION_TYPE":"U","MEAN_MOTION":15.35112932,"ECCENTRICITY":0.0008679,"INCLINATION":97.2182,"RA_OF_ASC_NODE":236.4291,"ARG_OF_PERICENTER":109.6229,"MEAN_ANOMALY":250.5952,"EPHEMERIS_TYPE":0,"NORAD_CAT_ID":47508,"ELEMENT_SET_NO":999,"REV_AT_EPOCH":30340,"BSTAR":0.00013771,"MEAN_MOTION_DOT":0.00004619,"MEAN_MOTION_DDOT":0},{"OBJECT_NAME":"HAWK-3B","OBJECT_ID":"2021-059BE","EPOCH":"2026-07-12T13:17:15.035136","CLASSIFICATION_TYPE":"U","MEAN_MOTION":15.71695978,"ECCENTRICITY":0.0004238,"INCLINATION":97.6638,"RA_OF_ASC_NODE":32.7011,"ARG_OF_PERICENTER":208.8876,"MEAN_ANOMALY":151.2152,"EPHEMERIS_TYPE":0,"NORAD_CAT_ID":48931,"ELEMENT_SET_NO":999,"REV_AT_EPOCH":28183,"BSTAR":0.00025051,"MEAN_MOTION_DOT":0.00032206,"MEAN_MOTION_DDOT":0},{"OBJECT_NAME":"HAWK-3C","OBJECT_ID":"2021-059BX","EPOCH":"2026-07-12T13:16:48.153504","CLASSIFICATION_TYPE":"U","MEAN_MOTION":15.71698478,"ECCENTRICITY":0.00045015,"INCLINATION":97.6757,"RA_OF_ASC_NODE":38.43,"ARG_OF_PERICENTER":208.2392,"MEAN_ANOMALY":151.8627,"EPHEMERIS_TYPE":0,"NORAD_CAT_ID":48948,"ELEMENT_SET_NO":999,"REV_AT_EPOCH":28183,"BSTAR":0.00027246147,"MEAN_MOTION_DOT":0.00035057,"MEAN_MOTION_DDOT":0},{"OBJECT_NAME":"HAWK-3A","OBJECT_ID":"2021-059CG","EPOCH":"2026-07-12T13:16:38.424864","CLASSIFICATION_TYPE":"U","MEAN_MOTION":15.7169944,"ECCENTRICITY":0.0004422,"INCLINATION":97.6701,"RA_OF_ASC_NODE":35.6142,"ARG_OF_PERICENTER":211.0194,"MEAN_ANOMALY":149.0808,"EPHEMERIS_TYPE":0,"NORAD_CAT_ID":48957,"ELEMENT_SET_NO":999,"REV_AT_EPOCH":28183,"BSTAR":0.00026712,"MEAN_MOTION_DOT":0.00034366,"MEAN_MOTION_DDOT":0},{"OBJECT_NAME":"HAWK-5C","OBJECT_ID":"2022-057Y","EPOCH":"2026-07-12T20:05:02.353920","CLASSIFICATION_TYPE":"U","MEAN_MOTION":15.52272516,"ECCENTRICITY":0.0003056,"INCLINATION":97.6606,"RA_OF_ASC_NODE":355.1788,"ARG_OF_PERICENTER":356.0136,"MEAN_ANOMALY":4.1091,"EPHEMERIS_TYPE":0,"NORAD_CAT_ID":52754,"ELEMENT_SET_NO":999,"REV_AT_EPOCH":23032,"BSTAR":0.00021777,"MEAN_MOTION_DOT":0.0001313,"MEAN_MOTION_DDOT":0},{"OBJECT_NAME":"HAWK-5B","OBJECT_ID":"2022-057AA","EPOCH":"2026-07-12T20:04:46.119360","CLASSIFICATION_TYPE":"U","MEAN_MOTION":15.5227027,"ECCENTRICITY":0.000371,"INCLINATION":97.6621,"RA_OF_ASC_NODE":353.5315,"ARG_OF_PERICENTER":341.9879,"MEAN_ANOMALY":18.1241,"EPHEMERIS_TYPE":0,"NORAD_CAT_ID":52756,"ELEMENT_SET_NO":999,"REV_AT_EPOCH":23032,"BSTAR":0.00021876,"MEAN_MOTION_DOT":0.00013191,"MEAN_MOTION_DDOT":0},{"OBJECT_NAME":"HAWK-5A","OBJECT_ID":"2022-057AB","EPOCH":"2026-07-12T20:04:29.250624","CLASSIFICATION_TYPE":"U","MEAN_MOTION":15.52270798,"ECCENTRICITY":0.000357,"INCLINATION":97.6615,"RA_OF_ASC_NODE":354.3619,"ARG_OF_PERICENTER":347.6384,"MEAN_ANOMALY":12.478,"EPHEMERIS_TYPE":0,"NORAD_CAT_ID":52757,"ELEMENT_SET_NO":999,"REV_AT_EPOCH":23032,"BSTAR":0.00021761,"MEAN_MOTION_DOT":0.00013121,"MEAN_MOTION_DDOT":0},{"OBJECT_NAME":"HAWK-6B","OBJECT_ID":"2023-011A","EPOCH":"2026-07-12T11:50:52.794240","CLASSIFICATION_TYPE":"U","MEAN_MOTION":15.23138816,"ECCENTRICITY":0.00037942,"INCLINATION":40.4967,"RA_OF_ASC_NODE":204.4428,"ARG_OF_PERICENTER":226.2355,"MEAN_ANOMALY":133.814,"EPHEMERIS_TYPE":0,"NORAD_CAT_ID":55324,"ELEMENT_SET_NO":999,"REV_AT_EPOCH":19170,"BSTAR":0.00011181159,"MEAN_MOTION_DOT":0.000025,"MEAN_MOTION_DDOT":0},{"OBJECT_NAME":"HAWK-6C","OBJECT_ID":"2023-011C","EPOCH":"2026-07-12T10:15:33.617088","CLASSIFICATION_TYPE":"U","MEAN_MOTION":15.23140487,"ECCENTRICITY":0.00042909,"INCLINATION":40.4959,"RA_OF_ASC_NODE":201.6644,"ARG_OF_PERICENTER":217.282,"MEAN_ANOMALY":142.7692,"EPHEMERIS_TYPE":0,"NORAD_CAT_ID":55326,"ELEMENT_SET_NO":999,"REV_AT_EPOCH":19170,"BSTAR":0.0001165287,"MEAN_MOTION_DOT":0.00002614,"MEAN_MOTION_DDOT":0},{"OBJECT_NAME":"HAWK-6A","OBJECT_ID":"2023-011D","EPOCH":"2026-07-12T10:15:36.715392","CLASSIFICATION_TYPE":"U","MEAN_MOTION":15.23139285,"ECCENTRICITY":0.00038014,"INCLINATION":40.4967,"RA_OF_ASC_NODE":203.2914,"ARG_OF_PERICENTER":214.8254,"MEAN_ANOMALY":145.2307,"EPHEMERIS_TYPE":0,"NORAD_CAT_ID":55327,"ELEMENT_SET_NO":999,"REV_AT_EPOCH":19170,"BSTAR":0.00011315945,"MEAN_MOTION_DOT":0.00002533,"MEAN_MOTION_DDOT":0},{"OBJECT_NAME":"HAWK-7A","OBJECT_ID":"2023-054P","EPOCH":"2026-07-12T17:23:10.862592","CLASSIFICATION_TYPE":"U","MEAN_MOTION":15.27616613,"ECCENTRICITY":0.0001685,"INCLINATION":97.2673,"RA_OF_ASC_NODE":80.4129,"ARG_OF_PERICENTER":346.2656,"MEAN_ANOMALY":13.8537,"EPHEMERIS_TYPE":0,"NORAD_CAT_ID":56191,"ELEMENT_SET_NO":999,"REV_AT_EPOCH":18092,"BSTAR":0.00012045,"MEAN_MOTION_DOT":0.0000318,"MEAN_MOTION_DDOT":0}]}
