HAWK-A                  
1 43765U 18099H   26193.67931596  .00004140  00000+0  16642-3 0  9999
2 43765  97.3903 245.5853 0034452 192.8190 167.2175 15.24944360416983
HAWK-B                  
1 43794U 18099AN  26193.66573963  .00003497  00000+0  14942-3 0  9995
2 43794  97.3952 244.9331 0031136 211.1132 148.8262 15.23097282416916
HAWK-C                  
1 43799U 18099AT  26193.72865411  .00005004  00000+0  17915-3 0  9998
2 43799  97.3881 246.6730 0040041 192.5496 167.4750 15.28466075417818
HAWK-2C                 
1 47502U 21006CT  26193.70939475  .00004068  00000+0  12213-3 0  9991
2 47502  97.2269 237.5126 0008623 107.8929 252.3255 15.34969433303418
HAWK-2A                 
1 47505U 21006CW  26193.71164323  .00004064  00000+0  12197-3 0  9994
2 47505  97.2313 238.2076 0008132 111.0893 249.1221 15.34984293303413
HAWK-2B                 
1 47508U 21006CZ  26193.64019179  .00004619  00000+0  13771-3 0  9992
2 47508  97.2182 236.4291 0008679 109.6229 250.5952 15.35112932303401
HAWK-3B                 
1 48931U 21059BE  26193.55364624  .00032206  00000+0  25051-3 0  9996
2 48931  97.6638  32.7011 0004238 208.8876 151.2152 15.71695978281833
HAWK-3C                 
1 48948U 21059BX  26193.55333511  .00035057  00000+0  27246-3 0  9990
2 48948  97.6757  38.4300 0004501 208.2392 151.8627 15.71698478281838
HAWK-3A                 
1 48957U 21059CG  26193.55322251  .00034366  00000+0  26712-3 0  9998
2 48957  97.6701  35.6142 0004422 211.0194 149.0808 15.71699440281834
HAWK-5C                 
1 52754U 22057Y   26193.83683280  .00013130  00000+0  21777-3 0  9992
2 52754  97.6606 355.1788 0003056 356.0136   4.1091 15.52272516230325
HAWK-5B                 
1 52756U 22057AA  26193.83664490  .00013191  00000+0  21876-3 0  9993
2 52756  97.6621 353.5315 0003710 341.9879  18.1241 15.52270270230323
HAWK-5A                 
1 52757U 22057AB  26193.83644966  .00013121  00000+0  21761-3 0  9996
2 52757  97.6615 354.3619 0003570 347.6384  12.4780 15.52270798230321
HAWK-6B                 
1 55324U 23011A   26193.49366660  .00002500  00000+0  11181-3 0  9998
2 55324  40.4967 204.4428 0003794 226.2355 133.8140 15.23138816191709
HAWK-6C                 
1 55326U 23011C   26193.42747242  .00002614  00000+0  11653-3 0  9992
2 55326  40.4959 201.6644 0004290 217.2820 142.7692 15.23140487191708
HAWK-6A                 
1 55327U 23011D   26193.42750828  .00002533  00000+0  11316-3 0  9993
2 55327  40.4967 203.2914 0003801 214.8254 145.2307 15.23139285191702
HAWK-7A                 
1 56191U 23054P   26193.72443128  .00003180  00000+0  12045-3 0  9994
2 56191  97.2673  80.4129 0001685 346.2656  13.8537 15.27616613180929
